[{"OBJECT_NAME":"FLOCK 4G-18","OBJECT_ID":"2025-009BZ","EPOCH":"2026-03-09T04:35:14.656704","MEAN_MOTION":15.27241676,"ECCENTRICITY":0.00041001,"INCLINATION":97.4054,"RA_OF_ASC_NODE":150.5008,"ARG_OF_PERICENTER":335.7331,"MEAN_ANOMALY":24.3715,"EPHEMERIS_TYPE":0,"CLASSIFICATION_TYPE":"U","NORAD_CAT_ID":62680,"ELEMENT_SET_NO":999,"REV_AT_EPOCH":12126,"BSTAR":0.0004431856,"MEAN_MOTION_DOT":0.00011766,"MEAN_MOTION_DDOT":0},{"OBJECT_NAME":"STARLINK-33693","OBJECT_ID":"2025-065L","EPOCH":"2026-03-09T12:29:40.355808","MEAN_MOTION":15.27608182,"ECCENTRICITY":0.00014899,"INCLINATION":43.0001,"RA_OF_ASC_NODE":108.0642,"ARG_OF_PERICENTER":277.6546,"MEAN_ANOMALY":82.4136,"EPHEMERIS_TYPE":0,"CLASSIFICATION_TYPE":"U","NORAD_CAT_ID":63409,"ELEMENT_SET_NO":999,"REV_AT_EPOCH":5281,"BSTAR":0.0012444125,"MEAN_MOTION_DOT":0.0003417,"MEAN_MOTION_DDOT":0}]
